start=new Date('2023-06-18T00:00:00.000Z').valueOf();
sats=[{"MEAN_MOTION":"15.08834903","SITE":"AFETR","MEAN_ELEMENT_THEORY":"SGP4","ECCENTRICITY":"0.00018750","APOAPSIS":"541.058","EPOCH":"2023-06-17T19:21:03.533760","CENTER_NAME":"EARTH","INCLINATION":"53.2168","FILE":"3935891","REV_AT_EPOCH":"6529","MEAN_ANOMALY":"259.5820","CLASSIFICATION_TYPE":"U","PERIOD":"95.438","ARG_OF_PERICENTER":"100.5384","TLE_LINE2":"2 52332  53.2168 359.8259 0001875 100.5384 259.5820 15.08834903 65299","MEAN_MOTION_DOT":"-0.00001153","OBJECT_TYPE":"PAYLOAD","BSTAR":"-0.00005437500000","NORAD_CAT_ID":"52332","TIME_SYSTEM":"UTC","OBJECT_NAME":"STARLINK-3831","TLE_LINE1":"1 52332U 22045B   23168.80629090 -.00001153  00000-0 -54375-4 0  9992","EPHEMERIS_TYPE":"0","MEAN_MOTION_DDOT":"0.0000000000000","LAUNCH_DATE":"2022-04-29","COUNTRY_CODE":"US","GP_ID":"234171812","DECAY_DATE":null,"RCS_SIZE":"LARGE","ELEMENT_SET_NO":"999","SEMIMAJOR_AXIS":"6917.896","RA_OF_ASC_NODE":"359.8259","OBJECT_ID":"2022-045B","REF_FRAME":"TEME","PERIAPSIS":"538.464"},{"PERIOD":"95.438","TLE_LINE2":"2 52333  53.2177 359.8354 0000973 105.5646 254.5453 15.08830088 65286","MEAN_MOTION_DOT":"-0.00001593","ARG_OF_PERICENTER":"105.5646","NORAD_CAT_ID":"52333","BSTAR":"-0.00008207800000","OBJECT_TYPE":"PAYLOAD","MEAN_ELEMENT_THEORY":"SGP4","MEAN_MOTION":"15.08830088","SITE":"AFETR","ECCENTRICITY":"0.00009730","INCLINATION":"53.2177","FILE":"3935891","EPOCH":"2023-06-17T19:14:23.403264","CENTER_NAME":"EARTH","APOAPSIS":"540.449","MEAN_ANOMALY":"254.5453","CLASSIFICATION_TYPE":"U","REV_AT_EPOCH":"6528","ELEMENT_SET_NO":"999","RCS_SIZE":"LARGE","DECAY_DATE":null,"OBJECT_ID":"2022-045C","RA_OF_ASC_NODE":"359.8354","SEMIMAJOR_AXIS":"6917.911","REF_FRAME":"TEME","PERIAPSIS":"539.103","OBJECT_NAME":"STARLINK-3847","TIME_SYSTEM":"UTC","TLE_LINE1":"1 52333U 22045C   23168.80165976 -.00001593  00000-0 -82078-4 0  9990","LAUNCH_DATE":"2022-04-29","MEAN_MOTION_DDOT":"0.0000000000000","EPHEMERIS_TYPE":"0","GP_ID":"234172564","COUNTRY_CODE":"US"},{"COUNTRY_CODE":"US","GP_ID":"234173314","EPHEMERIS_TYPE":"0","MEAN_MOTION_DDOT":"0.0000000000000","LAUNCH_DATE":"2022-04-29","TLE_LINE1":"1 52334U 22045D   23168.79062084 -.00000348  00000-0 -37663-5 0  9993","TIME_SYSTEM":"UTC","OBJECT_NAME":"STARLINK-3880","PERIAPSIS":"538.437","REF_FRAME":"TEME","SEMIMAJOR_AXIS":"6917.903","RA_OF_ASC_NODE":"359.8852","OBJECT_ID":"2022-045D","DECAY_DATE":null,"RCS_SIZE":"LARGE","ELEMENT_SET_NO":"999","REV_AT_EPOCH":"6528","MEAN_ANOMALY":"292.1366","CLASSIFICATION_TYPE":"U","APOAPSIS":"541.098","EPOCH":"2023-06-17T18:58:29.640576","CENTER_NAME":"EARTH","FILE":"3935891","INCLINATION":"53.2166","ECCENTRICITY":"0.00019230","SITE":"AFETR","MEAN_MOTION":"15.08832679","MEAN_ELEMENT_THEORY":"SGP4","OBJECT_TYPE":"PAYLOAD","BSTAR":"-0.00000376630000","NORAD_CAT_ID":"52334","ARG_OF_PERICENTER":"67.9831","MEAN_MOTION_DOT":"-0.00000348","TLE_LINE2":"2 52334  53.2166 359.8852 0001923  67.9831 292.1366 15.08832679 65280","PERIOD":"95.438"},{"COUNTRY_CODE":"US","GP_ID":"234172062","MEAN_MOTION_DDOT":"0.0000000000000","EPHEMERIS_TYPE":"0","LAUNCH_DATE":"2022-04-29","TLE_LINE1":"1 52335U 22045E   23168.78693218 -.00003049  00000-0 -17356-3 0  9998","TIME_SYSTEM":"UTC","OBJECT_NAME":"STARLINK-3814","PERIAPSIS":"538.439","REF_FRAME":"TEME","RA_OF_ASC_NODE":"359.9005","OBJECT_ID":"2022-045E","SEMIMAJOR_AXIS":"6917.906","RCS_SIZE":"LARGE","DECAY_DATE":null,"ELEMENT_SET_NO":"999","REV_AT_EPOCH":"6529","CLASSIFICATION_TYPE":"U","MEAN_ANOMALY":"285.3865","APOAPSIS":"541.103","INCLINATION":"53.2169","FILE":"3935891","EPOCH":"2023-06-17T18:53:10.940352","CENTER_NAME":"EARTH","ECCENTRICITY":"0.00019260","MEAN_MOTION":"15.08831599","SITE":"AFETR","MEAN_ELEMENT_THEORY":"SGP4","OBJECT_TYPE":"PAYLOAD","NORAD_CAT_ID":"52335","BSTAR":"-0.00017356000000","ARG_OF_PERICENTER":"74.7340","MEAN_MOTION_DOT":"-0.00003049","TLE_LINE2":"2 52335  53.2169 359.9005 0001926  74.7340 285.3865 15.08831599 65298","PERIOD":"95.438"},{"REF_FRAME":"TEME","PERIAPSIS":"539.050","RCS_SIZE":"LARGE","DECAY_DATE":null,"ELEMENT_SET_NO":"999","RA_OF_ASC_NODE":"359.5156","OBJECT_ID":"2022-045F","SEMIMAJOR_AXIS":"6917.928","MEAN_MOTION_DDOT":"0.0000000000000","EPHEMERIS_TYPE":"0","LAUNCH_DATE":"2022-04-29","COUNTRY_CODE":"US","GP_ID":"234172312","TIME_SYSTEM":"UTC","OBJECT_NAME":"STARLINK-3823","TLE_LINE1":"1 52336U 22045F   23168.82739935 -.00001304  00000-0 -63893-4 0  9991","ARG_OF_PERICENTER":"95.0320","TLE_LINE2":"2 52336  53.2189 359.5156 0001073  95.0320 265.0794 15.08824552 65300","MEAN_MOTION_DOT":"-0.00001304","OBJECT_TYPE":"PAYLOAD","NORAD_CAT_ID":"52336","BSTAR":"-0.00006389300000","PERIOD":"95.439","APOAPSIS":"540.535","FILE":"3935891","INCLINATION":"53.2189","CENTER_NAME":"EARTH","EPOCH":"2023-06-17T19:51:27.303840","REV_AT_EPOCH":"6530","CLASSIFICATION_TYPE":"U","MEAN_ANOMALY":"265.0794","SITE":"AFETR","MEAN_MOTION":"15.08824552","MEAN_ELEMENT_THEORY":"SGP4","ECCENTRICITY":"0.00010730"},{"ELEMENT_SET_NO":"999","RCS_SIZE":"LARGE","DECAY_DATE":null,"RA_OF_ASC_NODE":"359.8520","OBJECT_ID":"2022-045G","SEMIMAJOR_AXIS":"6917.889","REF_FRAME":"TEME","PERIAPSIS":"538.745","OBJECT_NAME":"STARLINK-3797","TIME_SYSTEM":"UTC","TLE_LINE1":"1 52337U 22045G   23168.79797648 -.00001234  00000-0 -59428-4 0  9994","LAUNCH_DATE":"2022-04-29","MEAN_MOTION_DDOT":"0.0000000000000","EPHEMERIS_TYPE":"0","GP_ID":"234173064","COUNTRY_CODE":"US","PERIOD":"95.438","TLE_LINE2":"2 52337  53.2170 359.8520 0001459  88.3958 271.7201 15.08837213 65292","MEAN_MOTION_DOT":"-0.00001234","ARG_OF_PERICENTER":"88.3958","NORAD_CAT_ID":"52337","BSTAR":"-0.00005942800000","OBJECT_TYPE":"PAYLOAD","MEAN_ELEMENT_THEORY":"SGP4","SITE":"AFETR","MEAN_MOTION":"15.08837213","ECCENTRICITY":"0.00014590","INCLINATION":"53.2170","FILE":"3935891","CENTER_NAME":"EARTH","EPOCH":"2023-06-17T19:09:05.167872","APOAPSIS":"540.763","CLASSIFICATION_TYPE":"U","MEAN_ANOMALY":"271.7201","REV_AT_EPOCH":"6529"},{"SITE":"AFETR","MEAN_MOTION":"15.16957810","MEAN_ELEMENT_THEORY":"SGP4","ECCENTRICITY":"0.00017550","APOAPSIS":"516.253","EPOCH":"2023-06-17T14:58:54.888096","CENTER_NAME":"EARTH","INCLINATION":"53.2168","FILE":"3935891","REV_AT_EPOCH":"6536","CLASSIFICATION_TYPE":"U","MEAN_ANOMALY":"299.7843","PERIOD":"94.927","ARG_OF_PERICENTER":"60.3327","TLE_LINE2":"2 52338  53.2168 354.2698 0001755  60.3327 299.7843 15.16957810 65369","MEAN_MOTION_DOT":"-0.00010002","OBJECT_TYPE":"PAYLOAD","BSTAR":"-0.00048577000000","NORAD_CAT_ID":"52338","TIME_SYSTEM":"UTC","OBJECT_NAME":"STARLINK-3815","TLE_LINE1":"1 52338U 22045H   23168.62424639 -.00010002  00000-0 -48577-3 0  9999","EPHEMERIS_TYPE":"0","MEAN_MOTION_DDOT":"0.0000000000000","LAUNCH_DATE":"2022-04-29","COUNTRY_CODE":"US","GP_ID":"234172815","DECAY_DATE":null,"RCS_SIZE":"LARGE","ELEMENT_SET_NO":"999","SEMIMAJOR_AXIS":"6893.178","OBJECT_ID":"2022-045H","RA_OF_ASC_NODE":"354.2698","REF_FRAME":"TEME","PERIAPSIS":"513.833"},{"TLE_LINE1":"1 52339U 22045J   23168.80530284 -.00001982  00000-0 -10656-3 0  9998","TIME_SYSTEM":"UTC","OBJECT_NAME":"STARLINK-3792","COUNTRY_CODE":"US","GP_ID":"234171563","MEAN_MOTION_DDOT":"0.0000000000000","EPHEMERIS_TYPE":"0","LAUNCH_DATE":"2022-04-29","RA_OF_ASC_NODE":"359.4600","OBJECT_ID":"2022-045J","SEMIMAJOR_AXIS":"6917.943","RCS_SIZE":"LARGE","DECAY_DATE":null,"ELEMENT_SET_NO":"999","PERIAPSIS":"539.226","REF_FRAME":"TEME","ECCENTRICITY":"0.00008410","SITE":"AFETR","MEAN_MOTION":"15.08819557","MEAN_ELEMENT_THEORY":"SGP4","REV_AT_EPOCH":"6530","MEAN_ANOMALY":"283.7714","CLASSIFICATION_TYPE":"U","APOAPSIS":"540.390","FILE":"3935891","INCLINATION":"53.2183","EPOCH":"2023-06-17T19:19:38.165376","CENTER_NAME":"EARTH","PERIOD":"95.439","OBJECT_TYPE":"PAYLOAD","NORAD_CAT_ID":"52339","BSTAR":"-0.00010656000000","ARG_OF_PERICENTER":"76.3372","TLE_LINE2":"2 52339  53.2183 359.4600 0000841  76.3372 283.7714 15.08819557 65309","MEAN_MOTION_DOT":"-0.00001982"},{"PERIOD":"95.438","OBJECT_TYPE":"PAYLOAD","BSTAR":"-0.00004131500000","NORAD_CAT_ID":"52340","ARG_OF_PERICENTER":"103.2427","TLE_LINE2":"2 52340  53.2166 349.5323 0000846 103.2427 256.8659 15.08828933 65431","MEAN_MOTION_DOT":"-0.00000945","ECCENTRICITY":"0.00008460","SITE":"AFETR","MEAN_MOTION":"15.08828933","MEAN_ELEMENT_THEORY":"SGP4","REV_AT_EPOCH":"6543","MEAN_ANOMALY":"256.8659","CLASSIFICATION_TYPE":"U","APOAPSIS":"540.364","EPOCH":"2023-06-17T20:51:05.263488","CENTER_NAME":"EARTH","FILE":"3935891","INCLINATION":"53.2166","SEMIMAJOR_AXIS":"6917.914","RA_OF_ASC_NODE":"349.5323","OBJECT_ID":"2022-045K","DECAY_DATE":null,"RCS_SIZE":"LARGE","ELEMENT_SET_NO":"999","PERIAPSIS":"539.194","REF_FRAME":"TEME","TLE_LINE1":"1 52340U 22045K   23168.86881092 -.00000945  00000-0 -41315-4 0  9997","TIME_SYSTEM":"UTC","OBJECT_NAME":"STARLINK-3818","COUNTRY_CODE":"US","GP_ID":"234171813","EPHEMERIS_TYPE":"0","MEAN_MOTION_DDOT":"0.0000000000000","LAUNCH_DATE":"2022-04-29"},{"OBJECT_TYPE":"PAYLOAD","NORAD_CAT_ID":"52341","BSTAR":"-0.00004202200000","ARG_OF_PERICENTER":"93.7701","MEAN_MOTION_DOT":"-0.00000956","TLE_LINE2":"2 52341  53.2177   0.5153 0000846  93.7701 266.3388 15.08829975 65271","PERIOD":"95.438","REV_AT_EPOCH":"6527","CLASSIFICATION_TYPE":"U","MEAN_ANOMALY":"266.3388","APOAPSIS":"540.361","FILE":"3935891","INCLINATION":"53.2177","EPOCH":"2023-06-17T15:21:12.947616","CENTER_NAME":"EARTH","ECCENTRICITY":"0.00008460","SITE":"AFETR","MEAN_MOTION":"15.08829975","MEAN_ELEMENT_THEORY":"SGP4","PERIAPSIS":"539.191","REF_FRAME":"TEME","OBJECT_ID":"2022-045L","RA_OF_ASC_NODE":"0.5153","SEMIMAJOR_AXIS":"6917.911","RCS_SIZE":"LARGE","DECAY_DATE":null,"ELEMENT_SET_NO":"999","COUNTRY_CODE":"US","GP_ID":"234172565","MEAN_MOTION_DDOT":"0.0000000000000","EPHEMERIS_TYPE":"0","LAUNCH_DATE":"2022-04-29","TLE_LINE1":"1 52341U 22045L   23168.63973319 -.00000956  00000-0 -42022-4 0  9995","TIME_SYSTEM":"UTC","OBJECT_NAME":"STARLINK-3843"}];
